ONEWEB-0020             
1 45133U 20008C   24211.37056279 -.00000185  00000+0 -56760-3 0  9997
2 45133  87.8963 173.0631 0001927  86.2990 273.8358 13.10369979218266
ONEWEB-0021             
1 45134U 20008D   24211.38549245 -.00000614  00000+0 -17955-2 0  9998
2 45134  87.8970 173.0773 0002089  76.3767 283.7593 13.10372488218578
ONEWEB-0023             
1 45136U 20008F   24211.39794143 -.00000323  00000+0 -96152-3 0  9994
2 45136  87.8973 173.0644 0002423  87.2199 272.9206 13.10376395218002
ONEWEB-0024             
1 45137U 20008G   24211.36890689 -.00000072  00000+0 -24337-3 0  9991
2 45137  87.8955 173.0536 0002014  79.8669 280.2686 13.10369840218166
ONEWEB-0025             
1 45138U 20008H   24211.38715441 -.00000589  00000+0 -17243-2 0  9996
2 45138  87.8959 173.0499 0002235  79.9874 280.1505 13.10373393218496
ONEWEB-0026             
1 45139U 20008J   24211.57205388 -.00000701  00000+0 -20126-2 0  9992
2 45139  87.8996 157.9348 0001924  83.2700 276.8647 13.11416048220984
ONEWEB-0028             
1 45140U 20008K   24211.37453691  .00000428  00000+0  11709-2 0  9995
2 45140  87.8992 158.0122 0002688  72.1022 288.0399 13.11420126218478
ONEWEB-0032             
1 45141U 20008L   24211.40210332 -.00000086  00000+0 -28261-3 0  9997
2 45141  87.8965 173.0938 0002169  77.8317 282.3053 13.10376230218226
